{"type": "FeatureCollection", "features": [ {"type": "Feature", "properties": {"norad_id": 30648, "name": "FENGYUN 1C DEB", "group": "fengyun-1c-debris", "lat": -69.22283108107833, "lon": -127.22479911313734, "alt_km": 747.5076385901539, "timestamp": "2025-12-07T20:38:14.341574+00:00", "meta": {"OBJECT_NAME": "FENGYUN 1C DEB", "OBJECT_ID": "1999-025APF", "EPOCH": "2025-12-07T06:19:53.029344", "MEAN_MOTION": 14.4798603, "ECCENTRICITY": 0.00349654, "INCLINATION": 98.6423, "RA_OF_ASC_NODE": 75.7981, "ARG_OF_PERICENTER": 143.6446, "MEAN_ANOMALY": 241.5369, "EPHEMERIS_TYPE": 0, "CLASSIFICATION_TYPE": "U", "NORAD_CAT_ID": 30648, "ELEMENT_SET_NO": 999, "REV_AT_EPOCH": 97787, "BSTAR": 0.0035914919, "MEAN_MOTION_DOT": 0.00013414, "MEAN_MOTION_DDOT": 0}, "tle": {"line1": "1 30648U 99025APF 25341.26380821  .00013414  00000+0  35915-2 0  9998", "line2": "2 30648  98.6423  75.7981 0034965 143.6446 241.5369 14.47986030977877"}}, "geometry": {"type": "Point", "coordinates": [-127.22479911313734, -69.22283108107833]}}, {"type": "Feature", "properties": {"norad_id": 30649, "name": "FENGYUN 1C DEB", "group": "fengyun-1c-debris", "lat": 6.819249435770842, "lon": 76.05240863453837, "alt_km": 832.3511240455864, "timestamp": "2025-12-07T20:38:14.341584+00:00", "meta": {"OBJECT_NAME": "FENGYUN 1C DEB", "OBJECT_ID": "1999-025APG", "EPOCH": "2025-12-07T05:37:16.946688", "MEAN_MOTION": 14.29446926, "ECCENTRICITY": 0.0051354, "INCLINATION": 98.8097, "RA_OF_ASC_NODE": 76.4826, "ARG_OF_PERICENTER": 186.9146, "MEAN_ANOMALY": 202.2612, "EPHEMERIS_TYPE": 0, "CLASSIFICATION_TYPE": "U", "NORAD_CAT_ID": 30649, "ELEMENT_SET_NO": 999, "REV_AT_EPOCH": 96985, "BSTAR": 0.0031858231, "MEAN_MOTION_DOT": 8.21e-05, "MEAN_MOTION_DDOT": 0}, "tle": {"line1": "1 30649U 99025APG 25341.23422392  .00008210  00000+0  31858-2 0  9996", "line2": "2 30649  98.8097  76.4826 0051354 186.9146 202.2612 14.29446926969850"}}, "geometry": {"type": "Point", "coordinates": [76.05240863453837, 6.819249435770842]}}, {"type": "Feature", "properties": {"norad_id": 30650, "name": "FENGYUN 1C DEB", "group": "fengyun-1c-debris", "lat": -77.218691794902, "lon": 67.92841870496771, "alt_km": 840.3194939941413, "timestamp": "2025-12-07T20:38:14.341593+00:00", "meta": {"OBJECT_NAME": "FENGYUN 1C DEB", "OBJECT_ID": "1999-025APH", "EPOCH": "2025-12-07T02:27:48.933216", "MEAN_MOTION": 14.13888711, "ECCENTRICITY": 0.00720634, "INCLINATION": 99.2042, "RA_OF_ASC_NODE": 21.5262, "ARG_OF_PERICENTER": 205.1569, "MEAN_ANOMALY": 180.738, "EPHEMERIS_TYPE": 0, "CLASSIFICATION_TYPE": "U", "NORAD_CAT_ID": 30650, "ELEMENT_SET_NO": 999, "REV_AT_EPOCH": 96219, "BSTAR": 0.0024182498, "MEAN_MOTION_DOT": 4.655e-05, "MEAN_MOTION_DDOT": 0}, "tle": {"line1": "1 30650U 99025APH 25341.10264969  .00004655  00000+0  24182-2 0  9999", "line2": "2 30650  99.2042  21.5262 0072063 205.1569 180.7380 14.13888711962192"}}, "geometry": {"type": "Point", "coordinates": [67.92841870496771, -77.218691794902]}}, {"type": "Feature", "properties": {"norad_id": 30652, "name": "FENGYUN 1C DEB", "group": "fengyun-1c-debris", "lat": 80.98207199286604, "lon": -61.89735892389375, "alt_km": 864.6280408535913, "timestamp": "2025-12-07T20:38:14.341603+00:00", "meta": {"OBJECT_NAME": "FENGYUN 1C DEB", "OBJECT_ID": "1999-025APJ", "EPOCH": "2025-12-07T00:05:59.075808", "MEAN_MOTION": 14.07802034, "ECCENTRICITY": 0.00073457, "INCLINATION": 98.7858, "RA_OF_ASC_NODE": 14.2929, "ARG_OF_PERICENTER": 283.689, "MEAN_ANOMALY": 149.7624, "EPHEMERIS_TYPE": 0, "CLASSIFICATION_TYPE": "U", "NORAD_CAT_ID": 30652, "ELEMENT_SET_NO": 999, "REV_AT_EPOCH": 96613, "BSTAR": 8.3794709e-05, "MEAN_MOTION_DOT": 9.9e-07, "MEAN_MOTION_DDOT": 0}, "tle": {"line1": "1 30652U 99025APJ 25341.00415597  .00000099  00000+0  83795-4 0  9990", "line2": "2 30652  98.7858  14.2929 0007345 283.6890 149.7624 14.07802034966132"}}, "geometry": {"type": "Point", "coordinates": [-61.89735892389375, 80.98207199286604]}}, {"type": "Feature", "properties": {"norad_id": 30654, "name": "FENGYUN 1C DEB", "group": "fengyun-1c-debris", "lat": -66.97524824125644, "lon": -72.56650342639375, "alt_km": 867.5972671330546, "timestamp": "2025-12-07T20:38:14.341613+00:00", "meta": {"OBJECT_NAME": "FENGYUN 1C DEB", "OBJECT_ID": "1999-025APL", "EPOCH": "2025-12-07T05:42:43.586208", "MEAN_MOTION": 14.1706246, "ECCENTRICITY": 0.00348062, "INCLINATION": 99.2409, "RA_OF_ASC_NODE": 264.2634, "ARG_OF_PERICENTER": 112.1712, "MEAN_ANOMALY": 248.3161, "EPHEMERIS_TYPE": 0, "CLASSIFICATION_TYPE": "U", "NORAD_CAT_ID": 30654, "ELEMENT_SET_NO": 999, "REV_AT_EPOCH": 96602, "BSTAR": 0.001809637, "MEAN_MOTION_DOT": 3.617e-05, "MEAN_MOTION_DDOT": 0}, "tle": {"line1": "1 30654U 99025APL 25341.23800447  .00003617  00000+0  18096-2 0  9998", "line2": "2 30654  99.2409 264.2634 0034806 112.1712 248.3161 14.17062460966025"}}, "geometry": {"type": "Point", "coordinates": [-72.56650342639375, -66.97524824125644]}}, {"type": "Feature", "properties": {"norad_id": 30656, "name": "FENGYUN 1C DEB", "group": "fengyun-1c-debris", "lat": -52.91440481115148, "lon": 167.78355087649908, "alt_km": 767.9143000800459, "timestamp": "2025-12-07T20:38:14.341623+00:00", "meta": {"OBJECT_NAME": "FENGYUN 1C DEB", "OBJECT_ID": "1999-025APN", "EPOCH": "2025-12-07T04:16:14.334816", "MEAN_MOTION": 14.45169741, "ECCENTRICITY": 0.00302891, "INCLINATION": 99.0184, "RA_OF_ASC_NODE": 154.9314, "ARG_OF_PERICENTER": 103.4535, "MEAN_ANOMALY": 257.0033, "EPHEMERIS_TYPE": 0, "CLASSIFICATION_TYPE": "U", "NORAD_CAT_ID": 30656, "ELEMENT_SET_NO": 999, "REV_AT_EPOCH": 97005, "BSTAR": 0.0042782311, "MEAN_MOTION_DOT": 0.00015048, "MEAN_MOTION_DDOT": 0}, "tle": {"line1": "1 30656U 99025APN 25341.17794369  .00015048  00000+0  42782-2 0  9998", "line2": "2 30656  99.0184 154.9314 0030289 103.4535 257.0033 14.45169741970056"}}, "geometry": {"type": "Point", "coordinates": [167.78355087649908, -52.91440481115148]}}, {"type": "Feature", "properties": {"norad_id": 30657, "name": "FENGYUN 1C DEB", "group": "fengyun-1c-debris", "lat": -0.8069031504857377, "lon": -100.37796421972898, "alt_km": 777.8045256073492, "timestamp": "2025-12-07T20:38:14.341633+00:00", "meta": {"OBJECT_NAME": "FENGYUN 1C DEB", "OBJECT_ID": "1999-025APP", "EPOCH": "2025-12-06T05:32:25.626624", "MEAN_MOTION": 14.38465745, "ECCENTRICITY": 0.0015831, "INCLINATION": 98.8365, "RA_OF_ASC_NODE": 78.0716, "ARG_OF_PERICENTER": 5.8948, "MEAN_ANOMALY": 23.5924, "EPHEMERIS_TYPE": 0, "CLASSIFICATION_TYPE": "U", "NORAD_CAT_ID": 30657, "ELEMENT_SET_NO": 999, "REV_AT_EPOCH": 97139, "BSTAR": 0.003499021, "MEAN_MOTION_DOT": 0.00010668, "MEAN_MOTION_DDOT": 0}, "tle": {"line1": "1 30657U 99025APP 25340.23085216  .00010668  00000+0  34990-2 0  9994", "line2": "2 30657  98.8365  78.0716 0015831   5.8948  23.5924 14.38465745971394"}}, "geometry": {"type": "Point", "coordinates": [-100.37796421972898, -0.8069031504857377]}}, {"type": "Feature", "properties": {"norad_id": 30658, "name": "FENGYUN 1C DEB", "group": "fengyun-1c-debris", "lat": -60.592684565630655, "lon": 179.49648189613396, "alt_km": 811.7030021529235, "timestamp": "2025-12-07T20:38:14.341643+00:00", "meta": {"OBJECT_NAME": "FENGYUN 1C DEB", "OBJECT_ID": "1999-025APQ", "EPOCH": "2025-12-03T01:12:41.803776", "MEAN_MOTION": 13.87127057, "ECCENTRICITY": 0.01832033, "INCLINATION": 98.4391, "RA_OF_ASC_NODE": 10.4218, "ARG_OF_PERICENTER": 254.1059, "MEAN_ANOMALY": 103.9843, "EPHEMERIS_TYPE": 0, "CLASSIFICATION_TYPE": "U", "NORAD_CAT_ID": 30658, "ELEMENT_SET_NO": 999, "REV_AT_EPOCH": 94550, "BSTAR": 0.0023182779, "MEAN_MOTION_DOT": 3.066e-05, "MEAN_MOTION_DDOT": 0}, "tle": {"line1": "1 30658U 99025APQ 25337.05048384  .00003066  00000+0  23183-2 0  9992", "line2": "2 30658  98.4391  10.4218 0183203 254.1059 103.9843 13.87127057945509"}}, "geometry": {"type": "Point", "coordinates": [179.49648189613396, -60.592684565630655]}}, {"type": "Feature", "properties": {"norad_id": 30660, "name": "FENGYUN 1C DEB", "group": "fengyun-1c-debris", "lat": 17.39521726376132, "lon": 75.62656735403175, "alt_km": 520.617987830552, "timestamp": "2025-12-07T20:38:14.341653+00:00", "meta": {"OBJECT_NAME": "FENGYUN 1C DEB", "OBJECT_ID": "1999-025APS", "EPOCH": "2025-12-07T06:08:32.961984", "MEAN_MOTION": 14.87437419, "ECCENTRICITY": 0.01385492, "INCLINATION": 98.1444, "RA_OF_ASC_NODE": 77.5783, "ARG_OF_PERICENTER": 351.743, "MEAN_ANOMALY": 33.1481, "EPHEMERIS_TYPE": 0, "CLASSIFICATION_TYPE": "U", "NORAD_CAT_ID": 30660, "ELEMENT_SET_NO": 999, "REV_AT_EPOCH": 703, "BSTAR": 0.00084797162, "MEAN_MOTION_DOT": 9.102e-05, "MEAN_MOTION_DDOT": 0}, "tle": {"line1": "1 30660U 99025APS 25341.25593706  .00009102  00000+0  84797-3 0  9991", "line2": "2 30660  98.1444  77.5783 0138549 351.7430  33.1481 14.87437419  7035"}}, "geometry": {"type": "Point", "coordinates": [75.62656735403175, 17.39521726376132]}}, {"type": "Feature", "properties": {"norad_id": 30661, "name": "FENGYUN 1C DEB", "group": "fengyun-1c-debris", "lat": 27.46542549237341, "lon": -17.837766059843872, "alt_km": 823.7280286364976, "timestamp": "2025-12-07T20:38:14.341663+00:00", "meta": {"OBJECT_NAME": "FENGYUN 1C DEB", "OBJECT_ID": "1999-025APT", "EPOCH": "2025-12-07T04:43:53.165568", "MEAN_MOTION": 14.21137331, "ECCENTRICITY": 0.01448661, "INCLINATION": 99.4871, "RA_OF_ASC_NODE": 156.4643, "ARG_OF_PERICENTER": 61.1744, "MEAN_ANOMALY": 300.3886, "EPHEMERIS_TYPE": 0, "CLASSIFICATION_TYPE": "U", "NORAD_CAT_ID": 30661, "ELEMENT_SET_NO": 999, "REV_AT_EPOCH": 97823, "BSTAR": 0.00020340333, "MEAN_MOTION_DOT": 4.42e-06, "MEAN_MOTION_DDOT": 0}, "tle": {"line1": "1 30661U 99025APT 25341.19714312  .00000442  00000+0  20340-3 0  9995", "line2": "2 30661  99.4871 156.4643 0144866  61.1744 300.3886 14.21137331978230"}}, "geometry": {"type": "Point", "coordinates": [-17.837766059843872, 27.46542549237341]}}]}